NORAD_CAT_ID,OBJECT_NAME,OBJECT_TYPE,EPOCH,MEAN_MOTION,ECCENTRICITY,INCLINATION,RA_OF_ASC_NODE,ARG_OF_PERICENTER,MEAN_ANOMALY,BSTAR,MEAN_MOTION_DOT,MEAN_MOTION_DDOT,TLE_LINE0,TLE_LINE1,TLE_LINE2,SEMIMAJOR_AXIS,PERIOD,APOGEE,PERIGEE,DECAYED
54084.0,STARLINK-5183,PAYLOAD,2024-01-27 11:22:07,15.08830155,0.0001488,53.2146,200.876,84.3863,275.7299,0.00048348,7.413e-05,0.0,0 STARLINK-5183,1 54084U 22136AK  24027.47369780  .00007413  00000-0  48348-3 0  9999,2 54084  53.2146 200.8760 0001488  84.3863 275.7299 15.08830155 70880,6917.91,95.438,540.805,538.746,0.0
54084.0,STARLINK-5183,PAYLOAD,2024-01-27 17:43:39,15.08839427,0.0001479,53.2149,199.6858,80.6298,279.4861,4.2383e-05,3.87e-06,0.0,0 STARLINK-5183,1 54084U 22136AK  24027.73864983  .00000387  00000-0  42383-4 0  9990,2 54084  53.2149 199.6858 0001479  80.6298 279.4861 15.08839427 70929,6917.882,95.438,540.77,538.724,0.0
54084.0,STARLINK-5183,PAYLOAD,2024-01-28 14:23:40,15.08842259,0.0001498,53.2168,195.8218,88.8251,271.2913,7.8265e-05,9.58e-06,0.0,0 STARLINK-5183,1 54084U 22136AK  24028.59976861  .00000958  00000-0  78265-4 0  9996,2 54084  53.2168 195.8218 0001498  88.8251 271.2913 15.08842259 70574,6917.873,95.437,540.775,538.702,0.0
54084.0,STARLINK-5183,PAYLOAD,2024-01-28 20:45:12,15.08843379,0.0001458,53.2165,194.6315,92.376,267.7399,7.7018e-05,9.38e-06,0.0,0 STARLINK-5183,1 54084U 22136AK  24028.86472682  .00000938  00000-0  77018-4 0  9991,2 54084  53.2165 194.6315 0001458  92.3760 267.7399 15.08843379 70614,6917.87,95.437,540.744,538.726,0.0
54084.0,STARLINK-5183,PAYLOAD,2024-01-30 10:54:27,15.08840251,0.0001458,53.2166,187.4931,109.1208,250.9942,4.9753e-05,5.04e-06,0.0,0 STARLINK-5183,1 54084U 22136AK  24030.45449017  .00000504  00000-0  49753-4 0  9999,2 54084  53.2166 187.4931 0001458 109.1208 250.9942 15.08840251 71337,6917.88,95.438,540.753,538.736,0.0
54084.0,STARLINK-5183,PAYLOAD,2024-01-30 14:05:14,15.08839284,0.0001443,53.2167,186.8981,111.1832,248.9314,3.2721e-05,2.33e-06,0.0,0 STARLINK-5183,1 54084U 22136AK  24030.58697092  .00000233  00000-0  32721-4 0  9997,2 54084  53.2167 186.8981 0001443 111.1832 248.9314 15.08839284 70878,6917.883,95.438,540.746,538.749,0.0
54084.0,STARLINK-5183,PAYLOAD,2024-01-30 20:26:46,15.08837869,0.0001361,53.2169,185.7089,108.876,251.2379,6.5204e-06,-1.84e-06,0.0,0 STARLINK-5183,1 54084U 22136AK  24030.85193201 -.00000184  00000-0  65204-5 0  9999,2 54084  53.2169 185.7089 0001361 108.8760 251.2379 15.08837869 70919,6917.887,95.438,540.693,538.81,0.0
54084.0,STARLINK-5183,PAYLOAD,2024-01-31 10:45:16,15.08823769,0.0001552,53.2175,183.0312,113.7139,246.4016,2.0011e-07,-2.85e-06,0.0,0 STARLINK-5183,1 54084U 22136AK  24031.44810285 -.00000285  00000-0  20011-6 0  9993,2 54084  53.2175 183.0312 0001552 113.7139 246.4016 15.08823769 71484,6917.93,95.439,540.869,538.721,0.0
54084.0,STARLINK-5183,PAYLOAD,2024-02-01 20:08:21,15.08835875,0.0002043,53.2169,176.7864,94.2712,265.8514,6.6349e-05,7.68e-06,0.0,0 STARLINK-5183,1 54084U 22136AK  24032.83914283  .00000768  00000-0  66349-4 0  9997,2 54084  53.2169 176.7864 0002043  94.2712 265.8514 15.08835875 71696,6917.893,95.438,541.171,538.345,0.0
54084.0,STARLINK-5183,PAYLOAD,2024-02-02 13:37:35,15.08845111,9.39e-05,53.2136,173.5176,86.2148,273.8951,0.00010697,1.415e-05,0.0,0 STARLINK-5183,1 54084U 22136AK  24033.56777450  .00001415  00000-0  10697-3 0  9995,2 54084  53.2136 173.5176 0000939  86.2148 273.8951 15.08845111 71325,6917.865,95.437,540.379,539.08,0.0
54084.0,STARLINK-5183,PAYLOAD,2024-02-02 18:23:44,15.08851316,0.0001149,53.2164,172.6249,93.2421,266.8703,0.00016057,2.269e-05,0.0,0 STARLINK-5183,1 54084U 22136AK  24033.76648907  .00002269  00000-0  16057-3 0  9995,2 54084  53.2164 172.6249 0001149  93.2421 266.8703 15.08851316 71830,6917.846,95.437,540.506,538.916,0.0
54084.0,STARLINK-5183,PAYLOAD,2024-02-03 13:28:23,15.08841944,0.0001648,53.2163,169.0563,112.9565,247.1601,1.2619e-05,-8.7e-07,0.0,0 STARLINK-5183,1 54084U 22136AK  24034.56137989 -.00000087  00000-0  12619-4 0  9995,2 54084  53.2163 169.0563 0001648 112.9565 247.1601 15.08841944 71475,6917.874,95.437,540.88,538.599,0.0
54084.0,STARLINK-5183,PAYLOAD,2024-02-03 18:14:32,15.08842623,0.0001259,53.2171,168.165,97.6828,262.4307,3.7955e-05,3.16e-06,0.0,0 STARLINK-5183,1 54084U 22136AK  24034.76009909  .00000316  00000-0  37955-4 0  9991,2 54084  53.2171 168.1650 0001259  97.6828 262.4307 15.08842623 71984,6917.872,95.437,540.608,538.866,0.0
54084.0,STARLINK-5183,PAYLOAD,2024-02-04 14:54:32,15.08855211,0.0001244,53.2171,164.2995,77.6468,282.4663,7.7847e-05,9.52e-06,0.0,0 STARLINK-5183,1 54084U 22136AK  24035.62120934  .00000952  00000-0  77847-4 0  9999,2 54084  53.2171 164.2995 0001244  77.6468 282.4663 15.08855211 71631,6917.834,95.437,540.559,538.838,0.0
54084.0,STARLINK-5183,PAYLOAD,2024-02-04 18:05:18,15.08860333,0.000117,53.2167,163.7035,84.2435,275.869,0.00011792,1.59e-05,0.0,0 STARLINK-5183,1 54084U 22136AK  24035.75368403  .00001590  00000-0  11792-3 0  9993,2 54084  53.2167 163.7035 0001170  84.2435 275.8690 15.08860333 72134,6917.818,95.436,540.493,538.874,0.0
54084.0,STARLINK-5183,PAYLOAD,2024-02-05 11:34:33,15.08843374,0.0001556,53.2149,160.4308,114.6432,245.4722,9.4311e-05,1.213e-05,0.0,0 STARLINK-5183,1 54084U 22136AK  24036.48233435  .00001213  00000-0  94311-4 0  9991,2 54084  53.2149 160.4308 0001556 114.6432 245.4722 15.08843374 72241,6917.87,95.437,540.811,538.659,0.0
54084.0,STARLINK-5183,PAYLOAD,2024-02-05 14:45:20,15.08843859,0.0001196,53.2161,159.8386,81.7275,278.3853,0.00010464,1.378e-05,0.0,0 STARLINK-5183,1 54084U 22136AK  24036.61481534  .00001378  00000-0  10464-3 0  9999,2 54084  53.2161 159.8386 0001196  81.7275 278.3853 15.08843859 71788,6917.869,95.437,540.561,538.906,0.0
54084.0,STARLINK-5183,PAYLOAD,2024-02-06 11:25:20,15.08841856,0.0001311,53.2166,155.9727,84.3163,275.7979,1.4492e-05,-5.7e-07,0.0,0 STARLINK-5183,1 54084U 22136AK  24037.47593603 -.00000057  00000-0  14492-4 0  9995,2 54084  53.2166 155.9727 0001311  84.3163 275.7979 15.08841856 72396,6917.875,95.437,540.647,538.833,0.0
54084.0,STARLINK-5183,PAYLOAD,2024-02-06 14:36:06,15.08847319,0.0001296,53.217,155.378,91.0999,269.0141,1.1232e-05,-1.09e-06,0.0,0 STARLINK-5183,1 54084U 22136AK  24037.60841272 -.00000109  00000-0  11232-4 0  9995,2 54084  53.2170 155.3780 0001296  91.0999 269.0141 15.08847319 71934,6917.858,95.437,540.62,538.826,0.0
54084.0,STARLINK-5183,PAYLOAD,2024-02-07 12:51:31,15.08835163,0.0001425,53.217,151.2156,90.3184,269.7971,6.1038e-06,-1.91e-06,0.0,0 STARLINK-5183,1 54084U 22136AK  24038.53578129 -.00000191  00000-0  61038-5 0  9997,2 54084  53.2170 151.2156 0001425  90.3184 269.7971 15.08835163 72559,6917.895,95.438,540.746,538.774,0.0
54084.0,STARLINK-5183,PAYLOAD,2024-02-07 14:26:54,15.08837828,0.0001339,53.2177,150.9213,89.7307,270.3839,1.6818e-05,-2e-07,0.0,0 STARLINK-5183,1 54084U 22136AK  24038.60202211 -.00000020  00000-0  16818-4 0  9997,2 54084  53.2177 150.9213 0001339  89.7307 270.3839 15.08837828 72088,6917.887,95.438,540.678,538.826,0.0
54084.0,STARLINK-5183,PAYLOAD,2024-02-08 12:42:18,15.08833651,0.0001527,53.2175,146.7583,98.7926,261.324,0.00022448,3.286e-05,0.0,0 STARLINK-5183,1 54084U 22136AK  24039.52938453  .00003286  00000-0  22448-3 0  9994,2 54084  53.2175 146.7583 0001527  98.7926 261.3240 15.08833651 72227,6917.9,95.438,540.821,538.708,0.0
54084.0,STARLINK-5183,PAYLOAD,2024-02-09 10:57:42,15.08837867,0.0001549,53.217,142.5958,96.8967,263.2201,0.00010358,1.361e-05,0.0,0 STARLINK-5183,1 54084U 22136AK  24040.45674523  .00001361  00000-0  10358-3 0  9992,2 54084  53.2170 142.5958 0001549  96.8967 263.2201 15.08837867 72849,6917.887,95.438,540.823,538.68,0.0
54084.0,STARLINK-5183,PAYLOAD,2024-02-09 14:08:28,15.088476,0.0001642,53.2166,142.0001,84.3008,275.8171,0.00026634,3.954e-05,0.0,0 STARLINK-5183,1 54084U 22136AK  24040.58922190  .00003954  00000-0  26634-3 0  9996,2 54084  53.2166 142.0001 0001642  84.3008 275.8171 15.08847600 72380,6917.857,95.437,540.858,538.586,0.0
54084.0,STARLINK-5183,PAYLOAD,2024-02-09 15:43:51,15.08853681,0.0001674,53.2171,141.7019,88.4599,271.6585,0.00033226,5.006e-05,0.0,0 STARLINK-5183,1 54084U 22136AK  24040.65545866  .00005006  00000-0  33226-3 0  9990,2 54084  53.2171 141.7019 0001674  88.4599 271.6585 15.08853681 72879,6917.839,95.437,540.862,538.546,0.0
54084.0,STARLINK-5183,PAYLOAD,2024-02-10 12:23:53,15.08838836,0.0001556,53.2166,137.8384,79.2545,280.8622,0.00011578,1.555e-05,0.0,0 STARLINK-5183,1 54084U 22136AK  24041.51658788  .00001555  00000-0  11578-3 0  9995,2 54084  53.2166 137.8384 0001556  79.2545 280.8622 15.08838836 73007,6917.884,95.438,540.825,538.673,0.0
54084.0,STARLINK-5183,PAYLOAD,2024-02-10 13:59:16,15.08842791,0.0001507,53.2169,137.5408,86.5572,273.5592,0.00017708,2.532e-05,0.0,0 STARLINK-5183,1 54084U 22136AK  24041.58282611  .00002532  00000-0  17708-3 0  9997,2 54084  53.2169 137.5408 0001507  86.5572 273.5592 15.08842791 72538,6917.872,95.437,540.779,538.694,0.0
54084.0,STARLINK-5183,PAYLOAD,2024-02-11 12:14:39,15.08850156,0.0001529,53.2165,133.3773,78.4653,281.6511,0.00022256,3.257e-05,0.0,0 STARLINK-5183,1 54084U 22136AK  24042.51018198  .00003257  00000-0  22256-3 0  9997,2 54084  53.2165 133.3773 0001529  78.4653 281.6511 15.08850156 72677,6917.849,95.437,540.772,538.657,0.0
54084.0,STARLINK-5183,PAYLOAD,2024-02-12 12:05:26,15.08853361,0.0001625,53.2163,128.9177,70.3401,289.7767,0.00029839,4.466e-05,0.0,0 STARLINK-5183,1 54084U 22136AK  24043.50377822  .00004466  00000-0  29839-3 0  9996,2 54084  53.2163 128.9177 0001625  70.3401 289.7767 15.08853361 72822,6917.84,95.437,540.829,538.58,0.0
54084.0,STARLINK-5183,PAYLOAD,2024-02-12 15:16:12,15.08860645,0.0001459,53.2162,128.3175,98.1971,261.9186,0.00036204,5.482e-05,0.0,0 STARLINK-5183,1 54084U 22136AK  24043.63625176  .00005482  00000-0  36204-3 0  9991,2 54084  53.2162 128.3175 0001459  98.1971 261.9186 15.08860645 73324,6917.817,95.436,540.692,538.673,0.0
